start=new Date('2022-05-11T00:00:00.000Z').valueOf();
sats=[{"MEAN_MOTION_DDOT":"0.0000000000000","PERIAPSIS":"546.215","RCS_SIZE":"LARGE","TLE_LINE2":"2 45584  53.0571 236.7892 0001441  76.5238 283.5912 15.06400041114655","TIME_SYSTEM":"UTC","SITE":"AFETR","COUNTRY_CODE":"US","DECAY_DATE":null,"PERIOD":"95.592","NORAD_CAT_ID":"45584","SEMIMAJOR_AXIS":"6925.348","TLE_LINE1":"1 45584U 20025BF  22130.73157563 -.00000192  00000-0  60328-5 0  9997","MEAN_ANOMALY":"283.5912","APOAPSIS":"548.211","ELEMENT_SET_NO":"999","ARG_OF_PERICENTER":"76.5238","REF_FRAME":"TEME","GP_ID":"203225352","FILE":"3439673","EPOCH":"2022-05-10T17:33:28.134432","MEAN_MOTION":"15.06400041","MEAN_ELEMENT_THEORY":"SGP4","OBJECT_TYPE":"PAYLOAD","OBJECT_ID":"2020-025BF","CLASSIFICATION_TYPE":"U","MEAN_MOTION_DOT":"-0.00000192","CENTER_NAME":"EARTH","INCLINATION":"53.0571","LAUNCH_DATE":"2020-04-22","OBJECT_NAME":"STARLINK-1343","RA_OF_ASC_NODE":"236.7892","EPHEMERIS_TYPE":"0","REV_AT_EPOCH":"11465","ECCENTRICITY":"0.00014410","BSTAR":"0.00000603280000"},{"ARG_OF_PERICENTER":"62.4833","EPOCH":"2022-05-10T13:18:41.846400","MEAN_MOTION":"15.06397514","FILE":"3439131","GP_ID":"203187918","REF_FRAME":"TEME","MEAN_MOTION_DOT":"-0.00000976","CLASSIFICATION_TYPE":"U","OBJECT_TYPE":"PAYLOAD","MEAN_ELEMENT_THEORY":"SGP4","OBJECT_ID":"2020-025BH","CENTER_NAME":"EARTH","INCLINATION":"53.0569","REV_AT_EPOCH":"11461","EPHEMERIS_TYPE":"0","LAUNCH_DATE":"2020-04-22","RA_OF_ASC_NODE":"237.5884","OBJECT_NAME":"STARLINK-1347","ECCENTRICITY":"0.00015620","BSTAR":"-0.00004663700000","MEAN_MOTION_DDOT":"0.0000000000000","PERIAPSIS":"546.139","RCS_SIZE":"LARGE","TLE_LINE2":"2 45586  53.0569 237.5884 0001562  62.4833 297.6314 15.06397514114611","TIME_SYSTEM":"UTC","COUNTRY_CODE":"US","SITE":"AFETR","SEMIMAJOR_AXIS":"6925.356","TLE_LINE1":"1 45586U 20025BH  22130.55465100 -.00000976  00000-0 -46637-4 0  9995","PERIOD":"95.592","NORAD_CAT_ID":"45586","DECAY_DATE":null,"MEAN_ANOMALY":"297.6314","APOAPSIS":"548.303","ELEMENT_SET_NO":"999"},{"TLE_LINE1":"1 45587U 20025BJ  22130.72419666  .00000376  00000-0  44115-4 0  9992","SEMIMAJOR_AXIS":"6925.359","PERIOD":"95.592","NORAD_CAT_ID":"45587","DECAY_DATE":null,"MEAN_ANOMALY":"301.6277","APOAPSIS":"548.295","ELEMENT_SET_NO":"999","MEAN_MOTION_DDOT":"0.0000000000000","PERIAPSIS":"546.153","RCS_SIZE":"LARGE","TIME_SYSTEM":"UTC","TLE_LINE2":"2 45587  53.0561 236.8153 0001546  58.4863 301.6277 15.06396566114659","COUNTRY_CODE":"US","SITE":"AFETR","INCLINATION":"53.0561","REV_AT_EPOCH":"11465","EPHEMERIS_TYPE":"0","RA_OF_ASC_NODE":"236.8153","LAUNCH_DATE":"2020-04-22","OBJECT_NAME":"STARLINK-1349","ECCENTRICITY":"0.00015460","BSTAR":"0.00004411500000","ARG_OF_PERICENTER":"58.4863","EPOCH":"2022-05-10T17:22:50.591424","MEAN_MOTION":"15.06396566","FILE":"3439673","GP_ID":"203224850","REF_FRAME":"TEME","MEAN_MOTION_DOT":"0.00000376","CLASSIFICATION_TYPE":"U","OBJECT_TYPE":"PAYLOAD","OBJECT_ID":"2020-025BJ","MEAN_ELEMENT_THEORY":"SGP4","CENTER_NAME":"EARTH"},{"PERIAPSIS":"546.328","MEAN_MOTION_DDOT":"0.0000000000000","RCS_SIZE":"LARGE","TIME_SYSTEM":"UTC","TLE_LINE2":"2 45588  53.0561 237.5238 0001283  92.0680 268.0456 15.06399187114625","COUNTRY_CODE":"US","SITE":"AFETR","TLE_LINE1":"1 45588U 20025BK  22130.56938845 -.00000528  00000-0 -16577-4 0  9992","SEMIMAJOR_AXIS":"6925.351","PERIOD":"95.592","NORAD_CAT_ID":"45588","DECAY_DATE":null,"MEAN_ANOMALY":"268.0456","APOAPSIS":"548.105","ELEMENT_SET_NO":"999","ARG_OF_PERICENTER":"92.0680","EPOCH":"2022-05-10T13:39:55.162080","MEAN_MOTION":"15.06399187","FILE":"3439131","GP_ID":"203188420","REF_FRAME":"TEME","MEAN_MOTION_DOT":"-0.00000528","CLASSIFICATION_TYPE":"U","MEAN_ELEMENT_THEORY":"SGP4","OBJECT_TYPE":"PAYLOAD","OBJECT_ID":"2020-025BK","CENTER_NAME":"EARTH","INCLINATION":"53.0561","REV_AT_EPOCH":"11462","EPHEMERIS_TYPE":"0","LAUNCH_DATE":"2020-04-22","OBJECT_NAME":"STARLINK-1360","RA_OF_ASC_NODE":"237.5238","ECCENTRICITY":"0.00012830","BSTAR":"-0.00001657700000"},{"BSTAR":"0.00009852400000","ECCENTRICITY":"0.00017250","RA_OF_ASC_NODE":"237.5313","LAUNCH_DATE":"2020-04-22","OBJECT_NAME":"STARLINK-1364","REV_AT_EPOCH":"11462","EPHEMERIS_TYPE":"0","INCLINATION":"53.0545","CENTER_NAME":"EARTH","CLASSIFICATION_TYPE":"U","MEAN_ELEMENT_THEORY":"SGP4","OBJECT_TYPE":"PAYLOAD","OBJECT_ID":"2020-025BL","MEAN_MOTION_DOT":"0.00001186","GP_ID":"203188671","REF_FRAME":"TEME","EPOCH":"2022-05-10T13:34:36.963840","MEAN_MOTION":"15.06393941","FILE":"3439131","ARG_OF_PERICENTER":"59.8260","ELEMENT_SET_NO":"999","APOAPSIS":"548.427","MEAN_ANOMALY":"300.2900","DECAY_DATE":null,"TLE_LINE1":"1 45589U 20025BL  22130.56570560  .00001186  00000-0  98524-4 0  9990","SEMIMAJOR_AXIS":"6925.367","NORAD_CAT_ID":"45589","PERIOD":"95.593","COUNTRY_CODE":"US","SITE":"AFETR","TLE_LINE2":"2 45589  53.0545 237.5313 0001725  59.8260 300.2900 15.06393941114623","TIME_SYSTEM":"UTC","RCS_SIZE":"LARGE","PERIAPSIS":"546.038","MEAN_MOTION_DDOT":"0.0000000000000"},{"TLE_LINE1":"1 45590U 20025BM  22130.71406081 -.00000326  00000-0 -30167-5 0  9992","SEMIMAJOR_AXIS":"6925.369","PERIOD":"95.593","NORAD_CAT_ID":"45590","DECAY_DATE":null,"APOAPSIS":"548.234","ELEMENT_SET_NO":"999","MEAN_ANOMALY":"304.4028","RCS_SIZE":"LARGE","MEAN_MOTION_DDOT":"0.0000000000000","PERIAPSIS":"546.233","COUNTRY_CODE":"US","SITE":"AFETR","TIME_SYSTEM":"UTC","TLE_LINE2":"2 45590  53.0558 266.8724 0001445  55.7098 304.4028 15.06393419114248","REV_AT_EPOCH":"11424","EPHEMERIS_TYPE":"0","LAUNCH_DATE":"2020-04-22","OBJECT_NAME":"STARLINK-1365","RA_OF_ASC_NODE":"266.8724","INCLINATION":"53.0558","BSTAR":"-0.00000301670000","ECCENTRICITY":"0.00014450","MEAN_MOTION":"15.06393419","EPOCH":"2022-05-10T17:08:14.853984","FILE":"3439673","GP_ID":"203225602","REF_FRAME":"TEME","ARG_OF_PERICENTER":"55.7098","CENTER_NAME":"EARTH","MEAN_MOTION_DOT":"-0.00000326","CLASSIFICATION_TYPE":"U","OBJECT_TYPE":"PAYLOAD","OBJECT_ID":"2020-025BM","MEAN_ELEMENT_THEORY":"SGP4"},{"RCS_SIZE":"LARGE","MEAN_MOTION_DDOT":"0.0000000000000","PERIAPSIS":"546.093","SITE":"AFETR","COUNTRY_CODE":"US","TLE_LINE2":"2 45658  53.0555 227.5716 0001597  66.3752 293.7405 15.06404861107850","TIME_SYSTEM":"UTC","NORAD_CAT_ID":"45658","PERIOD":"95.592","SEMIMAJOR_AXIS":"6925.334","TLE_LINE1":"1 45658U 20035B   22130.55555998  .00000471  00000-0  50479-4 0  9998","DECAY_DATE":null,"APOAPSIS":"548.305","ELEMENT_SET_NO":"999","MEAN_ANOMALY":"293.7405","FILE":"3439131","MEAN_MOTION":"15.06404861","EPOCH":"2022-05-10T13:20:00.382272","REF_FRAME":"TEME","GP_ID":"203188676","ARG_OF_PERICENTER":"66.3752","CENTER_NAME":"EARTH","MEAN_MOTION_DOT":"0.00000471","OBJECT_TYPE":"PAYLOAD","MEAN_ELEMENT_THEORY":"SGP4","OBJECT_ID":"2020-035B","CLASSIFICATION_TYPE":"U","EPHEMERIS_TYPE":"0","REV_AT_EPOCH":"10785","RA_OF_ASC_NODE":"227.5716","LAUNCH_DATE":"2020-06-04","OBJECT_NAME":"STARLINK-1441","INCLINATION":"53.0555","BSTAR":"0.00005047900000","ECCENTRICITY":"0.00015970"},{"MEAN_MOTION_DDOT":"0.0000000000000","PERIAPSIS":"546.238","RCS_SIZE":"LARGE","TIME_SYSTEM":"UTC","TLE_LINE2":"2 45659  53.0550 227.5734 0001438  61.9543 298.1591 15.06393311107446","COUNTRY_CODE":"US","SITE":"AFETR","DECAY_DATE":null,"SEMIMAJOR_AXIS":"6925.369","TLE_LINE1":"1 45659U 20035C   22130.55831013 -.00001100  00000-0 -54952-4 0  9996","PERIOD":"95.593","NORAD_CAT_ID":"45659","MEAN_ANOMALY":"298.1591","APOAPSIS":"548.230","ELEMENT_SET_NO":"999","ARG_OF_PERICENTER":"61.9543","GP_ID":"203164050","REF_FRAME":"TEME","EPOCH":"2022-05-10T13:23:57.995232","MEAN_MOTION":"15.06393311","FILE":"3438823","CLASSIFICATION_TYPE":"U","OBJECT_TYPE":"PAYLOAD","OBJECT_ID":"2020-035C","MEAN_ELEMENT_THEORY":"SGP4","MEAN_MOTION_DOT":"-0.00001100","CENTER_NAME":"EARTH","INCLINATION":"53.0550","RA_OF_ASC_NODE":"227.5734","LAUNCH_DATE":"2020-06-04","OBJECT_NAME":"STARLINK-1442","REV_AT_EPOCH":"10744","EPHEMERIS_TYPE":"0","ECCENTRICITY":"0.00014380","BSTAR":"-0.00005495200000"},{"ARG_OF_PERICENTER":"56.4198","FILE":"3439441","MEAN_MOTION":"15.06398609","EPOCH":"2022-05-10T13:35:56.650560","REF_FRAME":"TEME","GP_ID":"203200104","MEAN_MOTION_DOT":"-0.00000524","OBJECT_TYPE":"PAYLOAD","MEAN_ELEMENT_THEORY":"SGP4","OBJECT_ID":"2020-035D","CLASSIFICATION_TYPE":"U","CENTER_NAME":"EARTH","INCLINATION":"53.0556","EPHEMERIS_TYPE":"0","REV_AT_EPOCH":"10744","RA_OF_ASC_NODE":"227.5322","LAUNCH_DATE":"2020-06-04","OBJECT_NAME":"STARLINK-1443","ECCENTRICITY":"0.00016880","BSTAR":"-0.00001628600000","PERIAPSIS":"546.049","MEAN_MOTION_DDOT":"0.0000000000000","RCS_SIZE":"LARGE","TIME_SYSTEM":"UTC","TLE_LINE2":"2 45660  53.0556 227.5322 0001688  56.4198 303.6952 15.06398609107447","SITE":"AFETR","COUNTRY_CODE":"US","PERIOD":"95.592","NORAD_CAT_ID":"45660","TLE_LINE1":"1 45660U 20035D   22130.56662790 -.00000524  00000-0 -16286-4 0  9990","SEMIMAJOR_AXIS":"6925.353","DECAY_DATE":null,"MEAN_ANOMALY":"303.6952","APOAPSIS":"548.387","ELEMENT_SET_NO":"999"},{"RCS_SIZE":"LARGE","MEAN_MOTION_DDOT":"0.0000000000000","PERIAPSIS":"546.237","COUNTRY_CODE":"US","SITE":"AFETR","TIME_SYSTEM":"UTC","TLE_LINE2":"2 45661  53.0561 227.4424 0001417  76.2602 283.8544 15.06398322107859","SEMIMAJOR_AXIS":"6925.354","TLE_LINE1":"1 45661U 20035E   22130.58505552  .00000464  00000-0  50072-4 0  9997","PERIOD":"95.592","NORAD_CAT_ID":"45661","DECAY_DATE":null,"ELEMENT_SET_NO":"999","APOAPSIS":"548.200","MEAN_ANOMALY":"283.8544","EPOCH":"2022-05-10T14:02:28.796928","MEAN_MOTION":"15.06398322","FILE":"3439673","GP_ID":"203224606","REF_FRAME":"TEME","ARG_OF_PERICENTER":"76.2602","CENTER_NAME":"EARTH","MEAN_MOTION_DOT":"0.00000464","CLASSIFICATION_TYPE":"U","OBJECT_TYPE":"PAYLOAD","MEAN_ELEMENT_THEORY":"SGP4","OBJECT_ID":"2020-035E","REV_AT_EPOCH":"10785","EPHEMERIS_TYPE":"0","LAUNCH_DATE":"2020-06-04","RA_OF_ASC_NODE":"227.4424","OBJECT_NAME":"STARLINK-1444","INCLINATION":"53.0561","BSTAR":"0.00005007200000","ECCENTRICITY":"0.00014170"}];
